[{"OBJECT_NAME":"STARLINK-35422","OBJECT_ID":"2025-235L","EPOCH":"2026-03-09T21:26:40.006176","MEAN_MOTION":15.30208446,"ECCENTRICITY":5.501e-5,"INCLINATION":53.1589,"RA_OF_ASC_NODE":244.2529,"ARG_OF_PERICENTER":81.3897,"MEAN_ANOMALY":278.7166,"EPHEMERIS_TYPE":0,"CLASSIFICATION_TYPE":"U","NORAD_CAT_ID":66068,"ELEMENT_SET_NO":999,"REV_AT_EPOCH":2292,"BSTAR":0.0012731636,"MEAN_MOTION_DOT":0.00037549,"MEAN_MOTION_DDOT":0},{"OBJECT_NAME":"CZ-2C R\/B","OBJECT_ID":"2024-218A","EPOCH":"2026-03-09T22:16:31.791072","MEAN_MOTION":15.22960743,"ECCENTRICITY":0.00453409,"INCLINATION":97.5416,"RA_OF_ASC_NODE":83.973,"ARG_OF_PERICENTER":359.5317,"MEAN_ANOMALY":0.5869,"EPHEMERIS_TYPE":0,"CLASSIFICATION_TYPE":"U","NORAD_CAT_ID":62078,"ELEMENT_SET_NO":999,"REV_AT_EPOCH":7134,"BSTAR":0.00039378379,"MEAN_MOTION_DOT":9.445e-5,"MEAN_MOTION_DDOT":0}]
